satname,norad_id,inclination_deg,eccentricity,mean_motion_rev_per_day,perigee_km,apogee_km,l1,l2
STARLINK-1446,45663,53.0261,0.0005901,15.40007431,442.0603904673135,450.11434006319996,1 45663U 20035G   26006.17775623  .00020712  00000+0  51950-3 0  9990,2 45663  53.0261 295.6612 0005901  78.4479 281.7186 15.40007431310033
STARLINK-1448,45665,53.0571,0.0001585,15.06383732,546.1637418147939,548.3590931131284,1 45665U 20035J   26006.26145774  .00000220  00000+0  33694-4 0  9998,2 45665  53.0571 346.8691 0001585  88.9586 271.1585 15.06383732309312
STARLINK-1451,45668,53.0566,0.0002006,15.06823835,544.523904793311,547.3018336008336,1 45668U 20035M   26006.26429303  .00030731  00000+0  20494-2 0  9996,2 45668  53.0566 347.1656 0002006  88.6644 271.4575 15.06823835309321
STARLINK-1452,45669,53.0379,0.0003455,15.3504955,458.4104780077041,463.1361650398776,1 45669U 20035N   26006.23661891  .00017077  00000+0  50486-3 0  9997,2 45669  53.0379 316.8987 0003455 125.7788 234.3535 15.35049550309741
STARLINK-1453,45670,53.0553,0.0005983,15.39637371,443.097226140726,451.264401436707,1 45670U 20035P   26006.24864591  .00072954  00000+0  18144-2 0  9991,2 45670  53.0553 311.0365 0005983  98.8200 261.3482 15.39637371309717
STARLINK-1454,45671,53.0568,0.000147,15.06405581,546.1764293063034,548.2124767534933,1 45671U 20035Q   26006.22090415  .00002221  00000+0  16791-3 0  9993,2 45671  53.0568 347.0562 0001470  86.8815 273.2342 15.06405581309300
STARLINK-1456,45673,53.0561,0.0004908,15.37676221,449.6302008012717,456.33562810930107,1 45673U 20035S   26006.20843894  .00104196  00000+0  27473-2 0  9992,2 45673  53.0561 343.3143 0004908  73.3541 286.8001 15.37676221309379
STARLINK-1457,45674,53.052,0.0013691,15.54436735,394.50532871744963,413.0756025037854,1 45674U 20035T   26006.33334491  .00202696  00000+0  29519-2 0  9992,2 45674  53.0520 329.8247 0013691  61.6471 312.0608 15.54436735  5911
STARLINK-1458,45675,53.0561,0.0001227,15.06389077,546.3952911866036,548.0947799381302,1 45675U 20035U   26006.23196534 -.00002860  00000+0 -17325-3 0  9992,2 45675  53.0561 347.0006 0001227  90.1313 269.9817 15.06389077309288
STARLINK-1460,45676,53.0546,0.0001201,15.06393663,546.3992433042704,548.0627166930653,1 45676U 20035V   26006.20247716  .00001295  00000+0  10584-3 0  9998,2 45676  53.0546 347.1309 0001201  97.0975 263.0151 15.06393663309272
STARLINK-1392,45677,53.0542,0.0001546,15.06399867,546.1413066140758,548.2826245142269,1 45677U 20035W   26006.21353749  .00003906  00000+0  28094-3 0  9990,2 45677  53.0542 347.0842 0001546  88.8072 271.3094 15.06399867309313
STARLINK-1394,45679,53.0546,0.0004028,15.38478083,447.8584814413816,453.35971929984134,1 45679U 20035Y   26006.33334491  .00152751  00000+0  38946-2 0  9997,2 45679  53.0546 332.7666 0004028  82.7746   1.8666 15.38478083  5646
STARLINK-1402,45685,53.0532,0.0009422,15.35158861,454.0053591359256,466.8919899810626,1 45685U 20035AE  26006.27917658  .00078795  00000+0  22607-2 0  9991,2 45685  53.0532 318.2881 0009422  56.1939 303.9958 15.35158861309731
STARLINK-1404,45686,53.0551,0.0001454,15.06399813,546.2051853027479,548.2190768300616,1 45686U 20035AF  26006.30291912  .00001815  00000+0  14072-3 0  9991,2 45686  53.0551 336.6862 0001454  97.7983 262.3171 15.06399813309471
STARLINK-1413,45689,53.0571,0.0001444,15.06382412,546.265435033939,548.2654912652961,1 45689U 20035AJ  26006.18866861 -.00001106  00000+0 -55393-4 0  9998,2 45689  53.0571 337.1950 0001444  96.7480 263.3674 15.06382412309364
STARLINK-1417,45693,53.0553,0.0006111,15.09132038,534.623918282532,543.0778608811779,1 45693U 20035AN  26006.27711081  .00032108  00000+0  20094-2 0  9998,2 45693  53.0553 336.3731 0006111  59.0134 301.1456 15.09132038309461
STARLINK-1420,45695,53.0557,0.0001419,15.06414733,546.1837032302374,548.1491043362312,1 45695U 20035AQ  26006.25222230  .00014292  00000+0  97600-3 0  9993,2 45695  53.0557 316.9023 0001419  89.2453 270.8698 15.06414733309743
STARLINK-1422,45696,53.0547,0.0001529,15.06429081,546.0635581286542,548.181302462438,1 45696U 20035AR  26006.19603818  .00015718  00000+0  10709-2 0  9990,2 45696  53.0547 337.1642 0001529  93.2929 266.8235 15.06429081309441
STARLINK-1351,45697,53.0545,0.0001983,15.10388799,533.6424981435384,536.3842535826061,1 45697U 20035AS  26006.00482977  .00010944  00000+0  67552-3 0  9997,2 45697  53.0545 317.6616 0001983 109.1475 250.9731 15.10388799309711
STARLINK-1398,45699,53.0438,0.0006977,15.66578131,363.99661736011876,373.4111591355795,1 45699U 20035AU  26006.33334491  .00098916  00000+0  92120-3 0  9996,2 45699  53.0438 251.7273 0006977 109.5984  83.8107 15.66578131  5847
STARLINK-1400,45700,53.0555,0.0001898,15.06422188,545.8291374991322,548.4579739980954,1 45700U 20035AV  26006.27894871 -.00004069  00000+0 -25427-3 0  9999,2 45700  53.0555 316.7878 0001898 133.4285 226.6863 15.06422188309746
STARLINK-1403,45701,53.0536,0.0001442,15.06402172,546.206266776966,548.2035353812371,1 45701U 20035AW  26006.24210323  .00006448  00000+0  45133-3 0  9998,2 45701  53.0536 316.9572 0001442  86.0985 274.0169 15.06402172309730
STARLINK-1407,45703,53.0385,0.0004269,15.48207775,419.06597268868245,424.8719031384726,1 45703U 20035AY  26005.99757446  .00057082  00000+0  10668-2 0  9997,2 45703  53.0385 258.5421 0004269 252.7985 107.2555 15.48207775310545
STARLINK-1411,45706,53.0488,0.0002721,15.51792555,409.6448737340452,413.33979001645184,1 45706U 20035BB  26006.02256774  .00073068  00000+0  11991-2 0  9995,2 45706  53.0488 285.0948 0002721 132.4344 227.6895 15.51792555310166
STARLINK-1423,45710,53.057,0.0001594,15.06410943,546.0741242082913,548.2819146364836,1 45710U 20035BF  26006.13520411  .00000742  00000+0  68671-4 0  9992,2 45710  53.0570 317.4338 0001594 115.8813 244.2341 15.06410943309728
STARLINK-1433,45711,53.0559,0.0001242,15.0641077,546.3184254448379,548.0386738273664,1 45711U 20035BG  26006.11677528  .00004229  00000+0  30255-3 0  9993,2 45711  53.0559 317.5210 0001242  97.0518 263.0613 15.06410770309717
STARLINK-1434,45712,53.051,0.0003243,15.2026895,502.79648520103547,507.26090647135516,1 45712U 20035BH  26006.23908983  .00026844  00000+0  12313-2 0  9990,2 45712  53.0510 307.7936 0003243  43.6681 316.4571 15.20268950309872
STARLINK-1465,45731,53.055,0.0001298,15.06397795,546.3194048339319,548.1172270739544,1 45731U 20038B   26006.14994846  .00000441  00000+0  48515-4 0  9997,2 45731  53.0550 157.3689 0001298  87.7467 272.3670 15.06397795306769
STARLINK-1471,45735,53.0499,0.0002006,15.44345578,431.93526606978776,434.66801525242136,1 45735U 20038F   26006.22028757  .00022705  00000+0  49223-3 0  9992,2 45735  53.0499  80.2431 0002006  61.6252 298.4955 15.44345578307866
STARLINK-1474,45738,53.0306,0.0005138,15.82897649,318.8083374023099,325.6936561077764,1 45738U 20038J   26006.33334491  .00182757  00000+0  82767-3 0  9996,2 45738  53.0306  21.6483 0005138  69.2831 351.8073 15.82897649  5906
STARLINK-1480,45741,53.0541,0.0001643,15.37343648,452.8455465571469,455.0905762803295,1 45741U 20038M   26006.28604745  .00096265  00000+0  25698-2 0  9993,2 45741  53.0541 153.4803 0001643   3.2944 356.8069 15.37343648306843
STARLINK-1500,45744,53.038,0.0002746,15.31257158,470.1793381103107,473.9414665236636,1 45744U 20038Q   26006.02409151  .00026379  00000+0  87058-3 0  9990,2 45744  53.0380 125.8881 0002746  61.5457 298.5819 15.31257158307207
STARLINK-1504,45746,53.0246,0.0002602,15.48319968,419.87113632559976,423.40974050455134,1 45746U 20038S   26006.17955365  .00046735  00000+0  87283-3 0  9999,2 45746  53.0246  82.7428 0002602  15.9112 344.1976 15.48319968307815
STARLINK-1506,45747,53.0789,0.0003755,15.23897921,491.5162354590793,496.67728301226543,1 45747U 20038T   26006.33885493  .00010715  00000+0  45109-3 0  9992,2 45747  53.0789 130.2923 0003755  73.7367 286.4043 15.23897921307176
STARLINK-1464,45751,53.0547,8.38e-05,15.06403104,546.6217012297302,547.7823880536125,1 45751U 20038X   26005.66892926 -.00001566  00000+0 -86265-4 0  9996,2 45751  53.0547 139.5276 0000838  87.0771 273.0314 15.06403104306980
STARLINK-1477,45754,53.0519,0.0003845,15.10568404,531.807491829547,537.1232830654944,1 45754U 20038AA  26005.72225660  .00046097  00000+0  27610-2 0  9994,2 45754  53.0519 138.2938 0003845 166.5056 193.6038 15.10568404307007
STARLINK-1478,45755,53.0554,0.0001105,15.24646741,491.0872742205165,492.60554055354805,1 45755U 20038AB  26006.33334491  .01891701  00000+0  68581-1 0  9998,2 45755  53.0554 135.8111 0001105 111.9196  91.7455 15.24646741  5696
STARLINK-1484,45756,53.01,0.0004266,15.75334745,340.81126768846116,346.5463209241634,1 45756U 20038AC  26006.19323636  .00109085  00000+0  70331-3 0  9996,2 45756  53.0100  13.2290 0004266  60.8711 299.2734 15.75334745308782
STARLINK-1493,45759,53.0557,0.000125,15.06397767,546.3527323448989,548.0840711953406,1 45759U 20038AF  26005.69105166  .00000441  00000+0  48474-4 0  9999,2 45759  53.0557 139.4294 0001250  86.4596 273.6536 15.06397767306973
STARLINK-1494,45760,53.0524,0.0001559,15.57701731,393.25455972575764,395.3662088201745,1 45760U 20038AG  26005.69467714  .00057328  00000+0  76090-3 0  9991,2 45760  53.0524 101.9298 0001559 241.0326 119.0529 15.57701731307511
STARLINK-1502,45764,53.0549,0.0001347,15.06384504,546.3262005054557,548.1919022016909,1 45764U 20038AL  26005.65788870 -.00001105  00000+0 -55348-4 0  9998,2 45764  53.0549 139.5792 0001347 106.0219 254.0918 15.06384504306985
STARLINK-1470,45772,53.0484,0.0002847,15.23047912,494.6961855776135,498.61069125324684,1 45772U 20038AU  26005.57219172  .00074893  00000+0  31216-2 0  9990,2 45772  53.0484 106.0473 0002847 130.2506 229.8739 15.23047912307442
STARLINK-1482,45773,53.0551,0.0001275,15.06398123,546.3343280043018,548.1002933535256,1 45773U 20038AV  26006.02094814  .00002663  00000+0  19762-3 0  9995,2 45773  53.0551 117.9490 0001275  89.3302 270.7833 15.06398123307310
